FENGYUN 1C DEB          
1 31674U 99025CCG 17345.62670673  .00001277  00000-0  64450-3 0  9992
2 31674  98.8655 292.2799 0039225  95.7119 264.8530 14.17662510547802
